O3B MPOWER F1           
1 54755U 22174A   24139.99792065 -.00000019  00000+0  00000+0 0  9997
2 54755   0.0639 359.5167 0006753  61.1304  12.0217  5.00114531 27381
